IRIDIUM 106             
1 41917U 17003A   26010.90701796  .00000233  00000+0  75996-4 0  9998
2 41917  86.4009 154.2782 0002291  86.2260 273.9198 14.34214970470665
IRIDIUM 103             
1 41918U 17003B   26010.89433178  .00000150  00000+0  46338-4 0  9999
2 41918  86.4005 154.1835 0002317 103.8039 256.3415 14.34218303470682
IRIDIUM 109             
1 41919U 17003C   26010.90067398  .00000113  00000+0  33444-4 0  9992
2 41919  86.4011 154.2378 0002049  96.0276 264.1154 14.34217999470655
IRIDIUM 102             
1 41920U 17003D   26010.93872520  .00000240  00000+0  78555-4 0  9991
2 41920  86.4006 154.1490 0001937  95.5403 264.6014 14.34216850470741
IRIDIUM 105             
1 41921U 17003E   26010.90944142  .00000308  00000+0  10307-3 0  9994
2 41921  86.3994 122.6500 0002094  96.9910 263.1524 14.34213503472599
IRIDIUM 104             
1 41922U 17003F   26010.88164609  .00000105  00000+0  30509-4 0  9996
2 41922  86.4010 154.2130 0001927 105.4794 254.6615 14.34218102470729
IRIDIUM 114             
1 41923U 17003G   26010.88798838  .00000162  00000+0  50889-4 0  9990
2 41923  86.4007 154.1942 0001988 101.1816 258.9603 14.34218409470703
IRIDIUM 108             
1 41924U 17003H   26010.84651001 -.00000026  00000+0 -16365-4 0  9999
2 41924  86.3991 122.5644 0001837  93.7974 266.3432 14.34217607472554
